O3B MPOWER F1           
1 54755U 22174A   23293.84284229 -.00000015  00000+0  00000+0 0  9995
2 54755   0.0509  18.9500 0005205 205.4187  79.7962  5.00118365 16819
